IRIDIUM 112             
1 41925U 17003J   23302.93267506  .00000157  00000+0  49061-4 0  9996
2 41925  86.3938 130.0722 0002214  84.0935 276.0513 14.34217180355494
IRIDIUM 111             
1 41926U 17003K   23303.05953080  .00000165  00000+0  51726-4 0  9990
2 41926  86.3941 130.0687 0001851  87.8812 272.2595 14.34216878355569
IRIDIUM 113             
1 42803U 17039A   23302.89994487  .00000542  00000+0  18663-3 0  9992
2 42803  86.4019   3.8775 0002091  90.3694 269.7742 14.34219599333407
IRIDIUM 123             
1 42804U 17039B   23302.80187802  .00000546  00000+0  18797-3 0  9991
2 42804  86.4014  35.4022 0002048  87.4321 272.7110 14.34218733332158
IRIDIUM 120             
1 42805U 17039C   23303.45174899  .00000519  00000+0  17831-3 0  9994
2 42805  86.4006   3.5542 0002089  93.6914 266.4521 14.34220684333475
IRIDIUM 115             
1 42806U 17039D   23302.91685114  .00000666  00000+0  19172-3 0  9995
2 42806  86.4544   3.7689 0001959  94.7631 265.3793 14.43369340335610
IRIDIUM 118             
1 42807U 17039E   23302.76383065  .00000531  00000+0  18248-3 0  9993
2 42807  86.4014  35.4204 0002189  94.0831 266.0615 14.34219376332148
IRIDIUM 117             
1 42808U 17039F   23303.20147157  .00000583  00000+0  20128-3 0  9991
2 42808  86.4014  35.2041 0002071  96.7089 263.4343 14.34218418332246
